start=new Date('2022-03-18T00:00:00.000Z').valueOf();
sats=[{"APOAPSIS":"548.414","SEMIMAJOR_AXIS":"6925.370","NORAD_CAT_ID":"47595","EPHEMERIS_TYPE":"0","PERIOD":"95.593","REV_AT_EPOCH":"6145","GP_ID":"198966766","EPOCH":"2022-03-17T07:15:52.416000","MEAN_MOTION_DOT":"0.00000196","PERIAPSIS":"546.055","ECCENTRICITY":"0.00017030","BSTAR":"0.00003203600000","MEAN_ANOMALY":"302.0593","FILE":"3363104","COUNTRY_CODE":"US","RA_OF_ASC_NODE":"86.1371","ARG_OF_PERICENTER":"58.0561","OBJECT_NAME":"STARLINK-2000","MEAN_MOTION_DDOT":"0.0000000000000","SITE":"AFETR","TLE_LINE1":"1 47595U 21009AZ  22076.30269000  .00000196  00000-0  32036-4 0  9993","REF_FRAME":"TEME","ELEMENT_SET_NO":"999","MEAN_MOTION":"15.06393165","INCLINATION":"53.0551","LAUNCH_DATE":"2021-02-04","TLE_LINE2":"2 47595  53.0551  86.1371 0001703  58.0561 302.0593 15.06393165 61450","RCS_SIZE":"LARGE","TIME_SYSTEM":"UTC","OBJECT_TYPE":"PAYLOAD","CENTER_NAME":"EARTH","DECAY_DATE":null,"OBJECT_ID":"2021-009AZ","CLASSIFICATION_TYPE":"U","MEAN_ELEMENT_THEORY":"SGP4"},{"REV_AT_EPOCH":"6147","GP_ID":"198966516","MEAN_MOTION_DOT":"-0.00000785","EPOCH":"2022-03-17T10:32:16.789344","APOAPSIS":"548.434","SEMIMAJOR_AXIS":"6925.394","NORAD_CAT_ID":"47596","EPHEMERIS_TYPE":"0","PERIOD":"95.593","MEAN_MOTION_DDOT":"0.0000000000000","OBJECT_NAME":"STARLINK-2001","SITE":"AFETR","BSTAR":"-0.00003379800000","ECCENTRICITY":"0.00016970","PERIAPSIS":"546.084","FILE":"3363104","MEAN_ANOMALY":"311.0716","COUNTRY_CODE":"US","ARG_OF_PERICENTER":"49.0420","RA_OF_ASC_NODE":"85.5190","TLE_LINE2":"2 47596  53.0539  85.5190 0001697  49.0420 311.0716 15.06385106 61470","LAUNCH_DATE":"2021-02-04","RCS_SIZE":"LARGE","TIME_SYSTEM":"UTC","ELEMENT_SET_NO":"999","TLE_LINE1":"1 47596U 21009BA  22076.43908321 -.00000785  00000-0 -33798-4 0  9996","REF_FRAME":"TEME","MEAN_MOTION":"15.06385106","INCLINATION":"53.0539","DECAY_DATE":null,"OBJECT_ID":"2021-009BA","MEAN_ELEMENT_THEORY":"SGP4","CLASSIFICATION_TYPE":"U","OBJECT_TYPE":"PAYLOAD","CENTER_NAME":"EARTH"},{"MEAN_ELEMENT_THEORY":"SGP4","CLASSIFICATION_TYPE":"U","OBJECT_ID":"2021-009BB","DECAY_DATE":null,"CENTER_NAME":"EARTH","OBJECT_TYPE":"PAYLOAD","TIME_SYSTEM":"UTC","RCS_SIZE":"LARGE","TLE_LINE2":"2 47597  53.0541  85.5537 0001627  54.1981 305.9159 15.06389009 61470","LAUNCH_DATE":"2021-02-04","MEAN_MOTION":"15.06389009","INCLINATION":"53.0541","ELEMENT_SET_NO":"999","TLE_LINE1":"1 47597U 21009BB  22076.43170639 -.00000861  00000-0 -38899-4 0  9992","REF_FRAME":"TEME","SITE":"AFETR","MEAN_MOTION_DDOT":"0.0000000000000","OBJECT_NAME":"STARLINK-2002","RA_OF_ASC_NODE":"85.5537","COUNTRY_CODE":"US","ARG_OF_PERICENTER":"54.1981","FILE":"3363104","MEAN_ANOMALY":"305.9159","ECCENTRICITY":"0.00016270","BSTAR":"-0.00003889900000","PERIAPSIS":"546.120","MEAN_MOTION_DOT":"-0.00000861","EPOCH":"2022-03-17T10:21:39.432096","GP_ID":"198965765","REV_AT_EPOCH":"6147","PERIOD":"95.593","EPHEMERIS_TYPE":"0","SEMIMAJOR_AXIS":"6925.382","NORAD_CAT_ID":"47597","APOAPSIS":"548.374"},{"MEAN_ELEMENT_THEORY":"SGP4","CLASSIFICATION_TYPE":"U","OBJECT_ID":"2021-009BC","DECAY_DATE":null,"CENTER_NAME":"EARTH","OBJECT_TYPE":"PAYLOAD","RCS_SIZE":"LARGE","TIME_SYSTEM":"UTC","TLE_LINE2":"2 47598  53.0557  55.5122 0001681  60.5709 299.5447 15.06399241 61909","LAUNCH_DATE":"2021-02-04","ELEMENT_SET_NO":"999","TLE_LINE1":"1 47598U 21009BC  22076.44182340  .00003512  00000-0  25458-3 0  9996","REF_FRAME":"TEME","INCLINATION":"53.0557","MEAN_MOTION":"15.06399241","SITE":"AFETR","MEAN_MOTION_DDOT":"0.0000000000000","OBJECT_NAME":"STARLINK-2003","FILE":"3363104","MEAN_ANOMALY":"299.5447","COUNTRY_CODE":"US","ARG_OF_PERICENTER":"60.5709","RA_OF_ASC_NODE":"55.5122","BSTAR":"0.00025458000000","ECCENTRICITY":"0.00016810","PERIAPSIS":"546.052","GP_ID":"198966015","MEAN_MOTION_DOT":"0.00003512","EPOCH":"2022-03-17T10:36:13.541760","REV_AT_EPOCH":"6190","EPHEMERIS_TYPE":"0","PERIOD":"95.592","APOAPSIS":"548.380","NORAD_CAT_ID":"47598","SEMIMAJOR_AXIS":"6925.351"},{"TIME_SYSTEM":"UTC","RCS_SIZE":"LARGE","LAUNCH_DATE":"2021-02-04","TLE_LINE2":"2 47599  53.0548  46.1475 0001767  55.9741 304.1416 15.06384481 62018","INCLINATION":"53.0548","MEAN_MOTION":"15.06384481","TLE_LINE1":"1 47599U 21009BD  22076.29901227 -.00000843  00000-0 -37724-4 0  9999","REF_FRAME":"TEME","ELEMENT_SET_NO":"999","CLASSIFICATION_TYPE":"U","MEAN_ELEMENT_THEORY":"SGP4","OBJECT_ID":"2021-009BD","DECAY_DATE":null,"CENTER_NAME":"EARTH","OBJECT_TYPE":"PAYLOAD","EPOCH":"2022-03-17T07:10:34.660128","MEAN_MOTION_DOT":"-0.00000843","GP_ID":"198966267","REV_AT_EPOCH":"6201","PERIOD":"95.593","EPHEMERIS_TYPE":"0","NORAD_CAT_ID":"47599","SEMIMAJOR_AXIS":"6925.396","APOAPSIS":"548.485","SITE":"AFETR","OBJECT_NAME":"STARLINK-2004","MEAN_MOTION_DDOT":"0.0000000000000","ARG_OF_PERICENTER":"55.9741","COUNTRY_CODE":"US","RA_OF_ASC_NODE":"46.1475","MEAN_ANOMALY":"304.1416","FILE":"3363104","PERIAPSIS":"546.037","BSTAR":"-0.00003772400000","ECCENTRICITY":"0.00017670"},{"SITE":"AFETR","OBJECT_NAME":"STARLINK-2005","MEAN_MOTION_DDOT":"0.0000000000000","MEAN_ANOMALY":"83.4349","FILE":"3363151","COUNTRY_CODE":"US","ARG_OF_PERICENTER":"276.6561","RA_OF_ASC_NODE":"43.3479","PERIAPSIS":"546.737","ECCENTRICITY":"0.00006900","BSTAR":"-0.00007530400000","GP_ID":"198991171","EPOCH":"2022-03-17T22:11:31.509600","MEAN_MOTION_DOT":"-0.00001403","REV_AT_EPOCH":"6211","EPHEMERIS_TYPE":"0","PERIOD":"95.592","APOAPSIS":"547.692","NORAD_CAT_ID":"47600","SEMIMAJOR_AXIS":"6925.349","CLASSIFICATION_TYPE":"U","MEAN_ELEMENT_THEORY":"SGP4","OBJECT_ID":"2021-009BE","DECAY_DATE":null,"CENTER_NAME":"EARTH","OBJECT_TYPE":"PAYLOAD","RCS_SIZE":"LARGE","TIME_SYSTEM":"UTC","LAUNCH_DATE":"2021-02-04","TLE_LINE2":"2 47600  53.0569  43.3479 0000690 276.6561  83.4349 15.06399701 62117","TLE_LINE1":"1 47600U 21009BE  22076.92467025 -.00001403  00000-0 -75304-4 0  9994","REF_FRAME":"TEME","ELEMENT_SET_NO":"999","MEAN_MOTION":"15.06399701","INCLINATION":"53.0569"},{"GP_ID":"198965266","MEAN_MOTION_DOT":"0.00002480","EPOCH":"2022-03-17T07:15:50.904864","REV_AT_EPOCH":"6201","EPHEMERIS_TYPE":"0","PERIOD":"95.592","APOAPSIS":"548.480","SEMIMAJOR_AXIS":"6925.344","NORAD_CAT_ID":"47601","SITE":"AFETR","MEAN_MOTION_DDOT":"0.0000000000000","OBJECT_NAME":"STARLINK-2006","FILE":"3363104","MEAN_ANOMALY":"300.8176","RA_OF_ASC_NODE":"46.1387","COUNTRY_CODE":"US","ARG_OF_PERICENTER":"59.2994","ECCENTRICITY":"0.00018350","BSTAR":"0.00018534000000","PERIAPSIS":"545.938","RCS_SIZE":"LARGE","TIME_SYSTEM":"UTC","TLE_LINE2":"2 47601  53.0561  46.1387 0001835  59.2994 300.8176 15.06401566 62012","LAUNCH_DATE":"2021-02-04","ELEMENT_SET_NO":"999","TLE_LINE1":"1 47601U 21009BF  22076.30267251  .00002480  00000-0  18534-3 0  9991","REF_FRAME":"TEME","MEAN_MOTION":"15.06401566","INCLINATION":"53.0561","MEAN_ELEMENT_THEORY":"SGP4","CLASSIFICATION_TYPE":"U","DECAY_DATE":null,"OBJECT_ID":"2021-009BF","CENTER_NAME":"EARTH","OBJECT_TYPE":"PAYLOAD"},{"OBJECT_ID":"2021-009BG","DECAY_DATE":null,"MEAN_ELEMENT_THEORY":"SGP4","CLASSIFICATION_TYPE":"U","OBJECT_TYPE":"PAYLOAD","CENTER_NAME":"EARTH","TLE_LINE2":"2 47602  53.0567  53.3483 0001731  49.6005 310.5135 15.06397429 61965","LAUNCH_DATE":"2021-02-04","RCS_SIZE":"LARGE","TIME_SYSTEM":"UTC","ELEMENT_SET_NO":"999","REF_FRAME":"TEME","TLE_LINE1":"1 47602U 21009BG  22076.92101387  .00001014  00000-0  86956-4 0  9993","MEAN_MOTION":"15.06397429","INCLINATION":"53.0567","MEAN_MOTION_DDOT":"0.0000000000000","OBJECT_NAME":"STARLINK-2007","SITE":"AFETR","ECCENTRICITY":"0.00017310","BSTAR":"0.00008695600000","PERIAPSIS":"546.023","FILE":"3363151","MEAN_ANOMALY":"310.5135","ARG_OF_PERICENTER":"49.6005","COUNTRY_CODE":"US","RA_OF_ASC_NODE":"53.3483","REV_AT_EPOCH":"6196","GP_ID":"198992673","MEAN_MOTION_DOT":"0.00001014","EPOCH":"2022-03-17T22:06:15.598368","APOAPSIS":"548.420","SEMIMAJOR_AXIS":"6925.356","NORAD_CAT_ID":"47602","EPHEMERIS_TYPE":"0","PERIOD":"95.592"},{"FILE":"3363104","MEAN_ANOMALY":"314.8697","RA_OF_ASC_NODE":"85.6738","COUNTRY_CODE":"US","ARG_OF_PERICENTER":"45.2447","BSTAR":"0.00011967000000","ECCENTRICITY":"0.00019120","PERIAPSIS":"545.892","SITE":"AFETR","MEAN_MOTION_DDOT":"0.0000000000000","OBJECT_NAME":"STARLINK-2008","EPHEMERIS_TYPE":"0","PERIOD":"95.592","APOAPSIS":"548.540","NORAD_CAT_ID":"47603","SEMIMAJOR_AXIS":"6925.351","GP_ID":"198966767","MEAN_MOTION_DOT":"0.00001501","EPOCH":"2022-03-17T09:39:10.960416","REV_AT_EPOCH":"6146","CENTER_NAME":"EARTH","OBJECT_TYPE":"PAYLOAD","MEAN_ELEMENT_THEORY":"SGP4","CLASSIFICATION_TYPE":"U","DECAY_DATE":null,"OBJECT_ID":"2021-009BH","ELEMENT_SET_NO":"999","REF_FRAME":"TEME","TLE_LINE1":"1 47603U 21009BH  22076.40221019  .00001501  00000-0  11967-3 0  9992","MEAN_MOTION":"15.06399288","INCLINATION":"53.0554","RCS_SIZE":"LARGE","TIME_SYSTEM":"UTC","TLE_LINE2":"2 47603  53.0554  85.6738 0001912  45.2447 314.8697 15.06399288 61466","LAUNCH_DATE":"2021-02-04"},{"PERIAPSIS":"545.924","ECCENTRICITY":"0.00019260","BSTAR":"0.00045597000000","COUNTRY_CODE":"US","ARG_OF_PERICENTER":"55.8070","RA_OF_ASC_NODE":"53.3137","MEAN_ANOMALY":"304.3101","FILE":"3363151","OBJECT_NAME":"STARLINK-2021","MEAN_MOTION_DDOT":"0.0000000000000","SITE":"AFETR","SEMIMAJOR_AXIS":"6925.393","NORAD_CAT_ID":"47604","APOAPSIS":"548.592","PERIOD":"95.593","EPHEMERIS_TYPE":"0","REV_AT_EPOCH":"6197","EPOCH":"2022-03-17T22:16:54.210144","MEAN_MOTION_DOT":"0.00006514","GP_ID":"198991672","OBJECT_TYPE":"PAYLOAD","CENTER_NAME":"EARTH","OBJECT_ID":"2021-009BJ","DECAY_DATE":null,"CLASSIFICATION_TYPE":"U","MEAN_ELEMENT_THEORY":"SGP4","INCLINATION":"53.0541","MEAN_MOTION":"15.06385557","REF_FRAME":"TEME","TLE_LINE1":"1 47604U 21009BJ  22076.92840521  .00006514  00000-0  45597-3 0  9990","ELEMENT_SET_NO":"999","LAUNCH_DATE":"2021-02-04","TLE_LINE2":"2 47604  53.0541  53.3137 0001926  55.8070 304.3101 15.06385557 61976","TIME_SYSTEM":"UTC","RCS_SIZE":"LARGE"}];
